[
  {
    "name": "KUIPER-00121",
    "noradId": "65950",
    "line1": "1 65950U 25228D   26146.32899122  .00001358  00000+0  20704-3 0  9991",
    "line2": "2 65950  51.9012   9.7685 0001057 107.1699 252.9379 14.79938465 34837"
  },
  {
    "name": "KUIPER-00122",
    "noradId": "65951",
    "line1": "1 65951U 25228E   26146.38569300 -.00005027  00000+0 -63073-3 0  9995",
    "line2": "2 65951  51.9019  19.4925 0001433  92.0398 268.0729 14.79937560 34704"
  },
  {
    "name": "KUIPER-00123",
    "noradId": "65952",
    "line1": "1 65952U 25228F   26146.35198172  .00004585  00000+0  62991-3 0  9992",
    "line2": "2 65952  51.8997  19.6571 0000928  92.8246 267.2822 14.79945430 34694"
  },
  {
    "name": "KUIPER-00124",
    "noradId": "65953",
    "line1": "1 65953U 25228G   26146.63017289  .00001878  00000+0  27531-3 0  9996",
    "line2": "2 65953  51.9008  10.9156 0000766 104.3537 255.7511 14.79932141 34843"
  },
  {
    "name": "KUIPER-00125",
    "noradId": "65954",
    "line1": "1 65954U 25228H   26146.30870840  .00001701  00000+0  25210-3 0  9998",
    "line2": "2 65954  51.9013 357.3737 0000775 107.9091 252.1956 14.79939406 35001"
  },
  {
    "name": "KUIPER-00126",
    "noradId": "65955",
    "line1": "1 65955U 25228J   26146.05078015  .00001917  00000+0  28035-3 0  9992",
    "line2": "2 65955  51.9004  18.5054 0000729 103.3934 256.7110 14.79938344 34680"
  },
  {
    "name": "KUIPER-00127",
    "noradId": "65956",
    "line1": "1 65956U 25228K   26146.31210497  .00000993  00000+0  15929-3 0  9995",
    "line2": "2 65956  51.9009   9.8125 0001186 112.9550 247.1538 14.79934923 34830"
  },
  {
    "name": "KUIPER-00128",
    "noradId": "65957",
    "line1": "1 65957U 25228L   26145.89004935  .00003637  00000+0  50567-3 0  9991",
    "line2": "2 65957  51.9030  11.7438 0000853 108.6777 251.4279 14.79942969 34768"
  },
  {
    "name": "KUIPER-00129",
    "noradId": "65958",
    "line1": "1 65958U 25228M   26146.60450539  .00001036  00000+0  16481-3 0  9995",
    "line2": "2 65958  51.9017   3.5668 0000892 103.7039 256.4022 14.79937717 34944"
  },
  {
    "name": "KUIPER-00130",
    "noradId": "65959",
    "line1": "1 65959U 25228N   26146.56804996  .00001606  00000+0  23966-3 0  9990",
    "line2": "2 65959  51.9040   6.2516 0000818 104.9998 255.1055 14.79936100 25192"
  },
  {
    "name": "KUIPER-00134",
    "noradId": "65960",
    "line1": "1 65960U 25228P   26146.60190403  .00049964  00000+0  12059-2 0  9997",
    "line2": "2 65960  51.8726 302.2857 0006080 224.0991 135.9513 15.40689234 35798"
  },
  {
    "name": "KUIPER-00135",
    "noradId": "65961",
    "line1": "1 65961U 25228Q   26146.33169904  .00001453  00000+0  21952-3 0  9994",
    "line2": "2 65961  51.9027   7.3539 0000836 106.8381 253.2673 14.79937204 34869"
  },
  {
    "name": "KUIPER-00136",
    "noradId": "65962",
    "line1": "1 65962U 25228R   26146.57076225  .00003780  00000+0  52238-3 0  9990",
    "line2": "2 65962  51.9032   3.7584 0001103  69.3264 290.7816 14.80117524 34937"
  },
  {
    "name": "KUIPER-00137",
    "noradId": "65963",
    "line1": "1 65963U 25228S   26146.57344318  .00001385  00000+0  21068-3 0  9998",
    "line2": "2 65963  51.9045   1.2287 0000677 109.7256 250.3780 14.79935165 34973"
  },
  {
    "name": "KUIPER-00138",
    "noradId": "65964",
    "line1": "1 65964U 25228T   26146.60989774  .00004043  00000+0  55897-3 0  9995",
    "line2": "2 65964  51.9006 358.5177 0000655 112.1084 247.9948 14.79939552 35018"
  },
  {
    "name": "KUIPER-00140",
    "noradId": "65965",
    "line1": "1 65965U 25228U   26146.60720598  .00000257  00000+0  62706-4 0  9994",
    "line2": "2 65965  51.9010   1.1173 0000812 112.0304 248.0745 14.79935827 34972"
  },
  {
    "name": "KUIPER-00141",
    "noradId": "65966",
    "line1": "1 65966U 25228V   26146.61258466  .00003869  00000+0  53596-3 0  9994",
    "line2": "2 65966  51.9041 356.1314 0000788 111.6615 248.4432 14.79956360 35040"
  },
  {
    "name": "KUIPER-00146",
    "noradId": "65967",
    "line1": "1 65967U 25228W   26146.30601987  .00001846  00000+0  27107-3 0  9993",
    "line2": "2 65967  51.9044 359.9967 0000827 114.0588 246.0461 14.79930599 34961"
  },
  {
    "name": "KUIPER-00149",
    "noradId": "65968",
    "line1": "1 65968U 25228X   26146.27763833  .00002827  00000+0  39962-3 0  9991",
    "line2": "2 65968  51.9018 355.0161 0000754 107.9795 252.1249 14.79937207 35030"
  },
  {
    "name": "KUIPER-00154",
    "noradId": "65969",
    "line1": "1 65969U 25228Y   26146.31410592  .00002092  00000+0  30327-3 0  9998",
    "line2": "2 65969  51.9018 352.3515 0000705 103.3090 256.7951 14.79937973 35072"
  },
  {
    "name": "KUIPER-00157",
    "noradId": "65970",
    "line1": "1 65970U 25228Z   26146.31141710  .00004309  00000+0  59387-3 0  9993",
    "line2": "2 65970  51.9033 354.9900 0000653 108.9748 251.1285 14.79932911 35032"
  },
  {
    "name": "KUIPER-00144",
    "noradId": "67133",
    "line1": "1 67133U 25301A   26146.06865176  .00001861  00000+0  29569-3 0  9998",
    "line2": "2 67133  51.9013  73.1942 0001127  57.0448 303.0621 14.76425978 25337"
  },
  {
    "name": "KUIPER-00164",
    "noradId": "67134",
    "line1": "1 67134U 25301B   26146.22642781  .00002607  00000+0  40120-3 0  9997",
    "line2": "2 67134  51.9031  83.9753 0001138 138.8688 221.2359 14.76502030 25371"
  },
  {
    "name": "KUIPER-00175",
    "noradId": "67135",
    "line1": "1 67135U 25301C   26146.19874202  .00005340  00000+0  54237-3 0  9990",
    "line2": "2 67135  51.8952  71.3029 0001068  54.5347 305.5720 14.92202842 25440"
  },
  {
    "name": "KUIPER-00179",
    "noradId": "67136",
    "line1": "1 67136U 25301D   26146.08197591  .00001397  00000+0  21215-3 0  9996",
    "line2": "2 67136  51.8971  83.3673 0000679  94.9456 265.1583 14.79935746 25377"
  },
  {
    "name": "KUIPER-00181",
    "noradId": "67137",
    "line1": "1 67137U 25301E   26146.27109137 -.00000278  00000+0 -74015-5 0  9994",
    "line2": "2 67137  51.9006  95.0500 0001650  82.7108 277.4042 14.79941940 25207"
  },
  {
    "name": "KUIPER-00183",
    "noradId": "67138",
    "line1": "1 67138U 25301F   26146.17467656  .00005277  00000+0  53099-3 0  9996",
    "line2": "2 67138  51.8944  72.2606 0009113 330.4777  29.5675 14.92584569 25527"
  },
  {
    "name": "KUIPER-00184",
    "noradId": "67139",
    "line1": "1 67139U 25301G   26146.17218265  .00002473  00000+0  38255-3 0  9999",
    "line2": "2 67139  51.8992  77.7981 0001808 122.5376 237.5760 14.76461032 25555"
  },
  {
    "name": "KUIPER-00186",
    "noradId": "67140",
    "line1": "1 67140U 25301H   26146.23726434  .00002253  00000+0  32454-3 0  9991",
    "line2": "2 67140  51.9017  95.2098 0000636 102.5799 257.5235 14.79917281 25043"
  },
  {
    "name": "KUIPER-00187",
    "noradId": "67141",
    "line1": "1 67141U 25301J   26146.16709527  .00003700  00000+0  51406-3 0  9994",
    "line2": "2 67141  51.9021  98.0403 0000712  90.1620 269.9424 14.79934519 24993"
  },
  {
    "name": "KUIPER-00188",
    "noradId": "67142",
    "line1": "1 67142U 25301K   26146.66668981  .00034773  00000+0  45700-2 0  9991",
    "line2": "2 67142  51.9028  63.4185 0000661 163.6791 333.0973 14.79903458  3663"
  },
  {
    "name": "KUIPER-00191",
    "noradId": "67143",
    "line1": "1 67143U 25301L   26146.20894402  .00004334  00000+0  59657-3 0  9998",
    "line2": "2 67143  51.9003  90.3539 0000852  67.5060 292.5993 14.79970163 25136"
  },
  {
    "name": "KUIPER-00196",
    "noradId": "67144",
    "line1": "1 67144U 25301M   26146.58958739 -.00420075  00000+0 -16285-1 0  9998",
    "line2": "2 67144  51.8791  48.3042 0003677 305.2648  54.7990 15.27459571 25723"
  },
  {
    "name": "KUIPER-00204",
    "noradId": "67145",
    "line1": "1 67145U 25301N   26146.66668981 -.01692678  00000+0 -15578+0 0  9998",
    "line2": "2 67145  51.8947  61.3662 0001757  13.3140 347.5928 14.97872084  5884"
  },
  {
    "name": "KUIPER-00210",
    "noradId": "67146",
    "line1": "1 67146U 25301P   26146.24271101  .00000713  00000+0  12246-3 0  9990",
    "line2": "2 67146  51.8996  90.1621 0000811  75.2525 284.8527 14.79935366 25285"
  },
  {
    "name": "KUIPER-00221",
    "noradId": "67147",
    "line1": "1 67147U 25301Q   26146.13332771  .00003093  00000+0  43451-3 0  9996",
    "line2": "2 67147  51.9009  98.1619 0000794  75.7732 284.3319 14.79939416 24993"
  },
  {
    "name": "KUIPER-00232",
    "noradId": "67148",
    "line1": "1 67148U 25301R   26146.11574229  .00003280  00000+0  45949-3 0  9993",
    "line2": "2 67148  51.8993  83.2739 0001218  87.2221 272.8881 14.79896468 25194"
  },
  {
    "name": "KUIPER-00241",
    "noradId": "67149",
    "line1": "1 67149U 25301S   26146.13872102 -.00000585  00000+0 -47728-4 0  9992",
    "line2": "2 67149  51.9018  93.1535 0000885  88.9903 271.1161 14.79929746 25393"
  },
  {
    "name": "KUIPER-00245",
    "noradId": "67150",
    "line1": "1 67150U 25301T   26146.26565393  .00003753  00000+0  52062-3 0  9993",
    "line2": "2 67150  51.9018 100.1052 0000871  63.7009 296.4043 14.79964771 24970"
  },
  {
    "name": "KUIPER-00246",
    "noradId": "67151",
    "line1": "1 67151U 25301U   26146.24810310 -.00001368  00000+0 -15041-3 0  9992",
    "line2": "2 67151  51.9002  85.1460 0000842  78.0504 282.0553 14.79940448 25205"
  },
  {
    "name": "KUIPER-00247",
    "noradId": "67152",
    "line1": "1 67152U 25301V   26146.19156056  .00004260  00000+0  58732-3 0  9993",
    "line2": "2 67152  51.8960  75.3900 0000939  84.3700 275.7370 14.79943049 25311"
  },
  {
    "name": "KUIPER-00248",
    "noradId": "67153",
    "line1": "1 67153U 25301W   26146.66668981  .00011033  00000+0  14679-2 0  9998",
    "line2": "2 67153  51.8988  55.1473 0001157  53.9405 251.6201 14.80105600  5702"
  },
  {
    "name": "KUIPER-00249",
    "noradId": "67154",
    "line1": "1 67154U 25301X   26146.19403658  .00004369  00000+0  60193-3 0  9992",
    "line2": "2 67154  51.8999  72.9191 0000875  77.2874 282.8187 14.79917982 25347"
  }
]